NORAD_CAT_ID,OBJECT_NAME,OBJECT_TYPE,EPOCH,MEAN_MOTION,ECCENTRICITY,INCLINATION,RA_OF_ASC_NODE,ARG_OF_PERICENTER,MEAN_ANOMALY,BSTAR,MEAN_MOTION_DOT,MEAN_MOTION_DDOT,TLE_LINE0,TLE_LINE1,TLE_LINE2,SEMIMAJOR_AXIS,PERIOD,APOGEE,PERIGEE,DECAYED
52880.0,STARLINK-4186,PAYLOAD,2022-09-18 22:00:00,15.30984049,0.0001686,53.2175,306.0332,43.5262,107.2081,-0.038213,-0.01063905,0.0,0 STARLINK-4186,1 52880U 22062BC  22261.91667824 -.01063905  00000-0 -38213-1 0  9995,2 52880  53.2175 306.0332 0001686  43.5262 107.2081 15.30984049 15152,6851.012,94.057,474.032,471.722,0.0
52880.0,STARLINK-4186,PAYLOAD,2022-09-19 14:00:01,15.29462846,0.0001489,53.2174,302.9486,58.4504,166.8493,-0.039888,-0.01059468,0.0,0 STARLINK-4186,1 52880U 22062BC  22262.58334491 -.01059468  00000-0 -39888-1 0  9998,2 52880  53.2174 302.9486 0001489  58.4504 166.8493 15.29462846  1305,6855.554,94.151,478.44,476.398,0.0
52880.0,STARLINK-4186,PAYLOAD,2022-09-19 22:00:00,15.28705326,0.0001476999999999,53.2175,301.4061,53.0021,208.2122,-0.040982,-0.01062993,0.0,0 STARLINK-4186,1 52880U 22062BC  22262.91667824 -.01062993  00000-0 -40982-1 0  9998,2 52880  53.2175 301.4061 0001477  53.0021 208.2122 15.28705326 15319,6857.819,94.197,480.696,478.671,0.0
52880.0,STARLINK-4186,PAYLOAD,2022-09-20 14:00:01,15.27186647,0.0001328,53.2173,298.332,54.9501,275.3526,-0.042924,-0.01062603,0.0,0 STARLINK-4186,1 52880U 22062BC  22263.58334491 -.01062603  00000-0 -42924-1 0  9999,2 52880  53.2173 298.3320 0001328  54.9501 275.3526 15.27186647  1302,6862.364000000001,94.291,485.141,483.318,0.0
52880.0,STARLINK-4186,PAYLOAD,2022-09-20 22:00:01,15.26426225,0.0001419,53.2175,296.795,45.8036,317.7406,-0.043918,-0.01062317,0.0,0 STARLINK-4186,1 52880U 22062BC  22263.91668981 -.01062317  00000-0 -43918-1 0  9996,2 52880  53.2175 296.7950 0001419  45.8036 317.7406 15.26426225 15466,6864.643,94.338,487.482,485.534,0.0
52880.0,STARLINK-4186,PAYLOAD,2022-09-21 22:00:00,15.24147863,0.0001601,53.2175,292.2,44.0256,53.5069,-0.047052,-0.01062386,0.0,0 STARLINK-4186,1 52880U 22062BC  22264.91667824 -.01062386  00000-0 -47052-1 0  9991,2 52880  53.2175 292.2000 0001601  44.0256  53.5069 15.24147863  1305,6871.482,94.479,494.448,492.247,0.0
52880.0,STARLINK-4186,PAYLOAD,2022-09-22 14:00:01,15.2265997,0.000165,53.2166,289.1459,46.2776,109.3768,-0.051266,-0.0111771,0.0,0 STARLINK-4186,1 52880U 22062BC  22265.58334491 -.01117710  00000-0 -51266-1 0  9990,2 52880  53.2166 289.1459 0001650  46.2776 109.3768 15.22659970  1304,6875.958000000001,94.571,498.958,496.689,0.0
52880.0,STARLINK-4186,PAYLOAD,2022-09-22 22:00:00,15.21870015,0.0001665999999999,53.2172,287.6205,46.3559,137.0147,-0.050406,-0.01063277,0.0,0 STARLINK-4186,1 52880U 22062BC  22265.91667824 -.01063277  00000-0 -50406-1 0  9999,2 52880  53.2172 287.6205 0001666  46.3559 137.0147 15.21870015  1303,6878.337,94.62,501.348,499.056,0.0
52880.0,STARLINK-4186,PAYLOAD,2022-09-23 14:00:01,15.20435064,0.0001726,53.2164,284.5777,46.3307,189.6568,-0.058489,-0.0118802,0.0,0 STARLINK-4186,1 52880U 22062BC  22266.58334491 -.01188020  00000-0 -58489-1 0  9997,2 52880  53.2164 284.5777 0001726  46.3307 189.6568 15.20435064  1302,6882.6640000000025,94.71,505.717,503.341,0.0
52880.0,STARLINK-4186,PAYLOAD,2022-09-23 22:00:00,15.19590335,0.000156,53.2174,283.0581,50.6477,210.3468,-0.053769,-0.01060796,0.0,0 STARLINK-4186,1 52880U 22062BC  22266.91667824 -.01060796  00000-0 -53769-1 0  9998,2 52880  53.2174 283.0581 0001560  50.6477 210.3468 15.19590335 15927,6885.215,94.762,508.154,506.006,0.0
52880.0,STARLINK-4186,PAYLOAD,2022-09-24 14:00:01,15.18124579,0.0001621,53.2164,280.0251,40.6755,267.541,-0.060219,-0.01146791,0.0,0 STARLINK-4186,1 52880U 22062BC  22267.58335648 -.01146791  00000-0 -60219-1 0  9996,2 52880  53.2164 280.0251 0001621  40.6755 267.5410 15.18124579  1303,6889.646,94.854,512.628,510.394,0.0
52880.0,STARLINK-4186,PAYLOAD,2022-09-24 22:00:00,15.17310626,0.0001535,53.2174,278.5112,44.4876,285.9173,-0.057337,-0.01072251,0.0,0 STARLINK-4186,1 52880U 22062BC  22267.91667824 -.01072251  00000-0 -57337-1 0  9993,2 52880  53.2174 278.5112 0001535  44.4876 285.9173 15.17310626 16071,6892.11,94.905,515.033,512.9169999999998,0.0
52880.0,STARLINK-4186,PAYLOAD,2022-09-25 14:00:01,15.15795581,0.0001665,53.2172,275.4902,38.6675,333.445,-0.060246,-0.01078238,0.0,0 STARLINK-4186,1 52880U 22062BC  22268.58334491 -.01078238  00000-0 -60246-1 0  9992,2 52880  53.2172 275.4902 0001665  38.6675 333.4450 15.15795581  1300,6896.701,95.0,519.715,517.418,0.0
52880.0,STARLINK-4186,PAYLOAD,2022-09-25 22:00:01,15.15031857,0.0001419999999999,53.2173,273.98,51.0856,340.5788,-0.0611899999999999,-0.01071966,0.0,0 STARLINK-4186,1 52880U 22062BC  22268.91668981 -.01071966  00000-0 -61190-1 0  9993,2 52880  53.2173 273.9800 0001420  51.0856 340.5788 15.15031857 16229,6899.019,95.048,521.864,519.904,0.0
52880.0,STARLINK-4186,PAYLOAD,2022-09-26 14:00:01,15.13543557,0.0001729,53.2164,270.9682,43.9518,23.8678,-0.066506,-0.01113617,0.0,0 STARLINK-4186,1 52880U 22062BC  22269.58334491 -.01113617  00000-0 -66506-1 0  9999,2 52880  53.2164 270.9682 0001729  43.9518  23.8678 15.13543557  1306,6903.541,95.141,526.599,524.212,0.0
52880.0,STARLINK-4186,PAYLOAD,2022-09-26 22:00:00,15.12793739,0.0001766,53.2168,269.4631,40.5187,44.0437,-0.0686799999999999,-0.01125033,0.0,0 STARLINK-4186,1 52880U 22062BC  22269.91667824 -.01125033  00000-0 -68680-1 0  9995,2 52880  53.2168 269.4631 0001766  40.5187  44.0437 15.12793739 16372,6905.821999999999,95.188,528.906,526.467,0.0
52880.0,STARLINK-4186,PAYLOAD,2022-09-27 00:00:00,15.12578069,0.0001824,53.2171,269.0884,46.3128,132.3084,-0.066908,-0.0109202,0.0,0 STARLINK-4186,1 52880U 22062BC  22270.00001157 -.01092020  00000-0 -66908-1 0  9998,2 52880  53.2171 269.0884 0001824  46.3128 132.3084 15.12578069  1309,6906.478,95.202,529.6030000000002,527.0830000000002,0.0
52880.0,STARLINK-4186,PAYLOAD,2022-09-27 14:00:01,15.11276731,0.0001784,53.2164,266.4637,45.5983,69.7212,-0.071925,-0.01128844,0.0,0 STARLINK-4186,1 52880U 22062BC  22270.58334491 -.01128844  00000-0 -71925-1 0  9990,2 52880  53.2164 266.4637 0001784  45.5983  69.7212 15.11276731  1309,6910.441999999999,95.284,533.54,531.0740000000002,0.0
52880.0,STARLINK-4186,PAYLOAD,2022-09-27 22:00:01,15.10476851,0.0001733999999999,53.2175,264.9654,49.2895,80.1241,-0.069774,-0.01075176,0.0,0 STARLINK-4186,1 52880U 22062BC  22270.91668981 -.01075176  00000-0 -69774-1 0  9999,2 52880  53.2175 264.9654 0001734  49.2895  80.1241 15.10476851  1304,6912.882,95.334,535.945,533.548,0.0
52880.0,STARLINK-4186,PAYLOAD,2022-09-28 06:00:00,15.09567674,0.0001730999999999,53.217,263.4683,59.5701,82.9189,-0.046908,-0.00709659,0.0,0 STARLINK-4186,1 52880U 22062BC  22271.25001157 -.00709659  00000-0 -46908-1 0  9996,2 52880  53.2170 263.4683 0001731  59.5701  82.9189 15.09567674 16581,6915.656999999997,95.392,538.719,536.325,0.0
52880.0,STARLINK-4186,PAYLOAD,2022-09-28 14:00:01,15.08948011,0.0001649,53.2173,261.9731,59.4658,95.1992,-0.01105,-0.00172479,0.0,0 STARLINK-4186,1 52880U 22062BC  22271.58334491 -.00172479  00000-0 -11050-1 0  9996,2 52880  53.2173 261.9731 0001649  59.4658  95.1992 15.08948011  1308,6917.55,95.431,540.556,538.275,0.0
52880.0,STARLINK-4186,PAYLOAD,2022-09-28 22:00:00,15.08870895,0.000165,53.2144,260.4652,57.2201,109.08,0.00010008,1.306e-05,0.0,0 STARLINK-4186,1 52880U 22062BC  22271.91667824  .00001306  00000-0  10008-3 0  9994,2 52880  53.2144 260.4652 0001650  57.2201 109.0800 15.08870895 16688,6917.786,95.436,540.7919999999998,538.51,0.0
52880.0,STARLINK-4186,PAYLOAD,2022-09-29 14:00:01,15.08884517,0.0001665,53.2146,257.4733,47.9037,141.6255,-0.0075596,-0.00118767,0.0,0 STARLINK-4186,1 52880U 22062BC  22272.58334491 -.00118767  00000-0 -75596-2 0  9993,2 52880  53.2146 257.4733 0001665  47.9037 141.6255 15.08884517  1300,6917.744000000002,95.435,540.761,538.4580000000002,0.0
52880.0,STARLINK-4186,PAYLOAD,2022-09-29 22:00:00,15.08766331,0.0001574,53.2147,255.9757,53.2422,147.8826,0.0011019,0.00017257,0.0,0 STARLINK-4186,1 52880U 22062BC  22272.91667824  .00017257  00000-0  11019-2 0  9999,2 52880  53.2147 255.9757 0001574  53.2422 147.8826 15.08766331  1302,6918.106,95.442,541.059,538.882,0.0
52880.0,STARLINK-4186,PAYLOAD,2022-09-30 06:00:02,15.08784976,0.0001773,53.2148,254.4812,49.6059,163.119,0.0029974,0.00047667,0.0,0 STARLINK-4186,1 52880U 22062BC  22273.25002315  .00047667  00000-0  29974-2 0  9992,2 52880  53.2148 254.4812 0001773  49.6059 163.1190 15.08784976 16884,6918.049,95.441,541.14,538.687,0.0
52880.0,STARLINK-4186,PAYLOAD,2022-09-30 14:00:01,15.08858823,0.0001774,53.2148,252.9842,50.2457,173.9605,-0.001351,-0.00021736,0.0,0 STARLINK-4186,1 52880U 22062BC  22273.58334491 -.00021736  00000-0 -13510-2 0  9991,2 52880  53.2148 252.9842 0001774  50.2457 173.9605 15.08858823  1305,6917.823,95.436,540.915,538.461,0.0
52880.0,STARLINK-4186,PAYLOAD,2022-09-30 22:00:00,15.08847095,0.0001709,53.215,251.4868,57.2501,178.5667,0.0025816,0.00041046,0.0,0 STARLINK-4186,1 52880U 22062BC  22273.91667824  .00041046  00000-0  25816-2 0  9993,2 52880  53.2150 251.4868 0001709  57.2501 178.5667 15.08847095  1303,6917.859,95.437,540.906,538.5409999999998,0.0
52880.0,STARLINK-4186,PAYLOAD,2022-10-01 14:00:01,15.08874749,0.0001712,53.2151,248.4949,48.9159,210.1398,-0.0027765999999999,-0.00044249,0.0,0 STARLINK-4186,1 52880U 22062BC  22274.58334491 -.00044249  00000-0 -27766-2 0  9994,2 52880  53.2151 248.4949 0001712  48.9159 210.1398 15.08874749 17082,6917.774,95.435,540.8240000000002,538.455,0.0
52880.0,STARLINK-4186,PAYLOAD,2022-10-01 22:00:00,15.08848736,0.0001569,53.2154,246.9975,53.6743,216.9993,-0.0012275,-0.00019775,0.0,0 STARLINK-4186,1 52880U 22062BC  22274.91667824 -.00019775  00000-0 -12275-2 0  9995,2 52880  53.2154 246.9975 0001569  53.6743 216.9993 15.08848736  1309,6917.854,95.437,540.804,538.633,0.0
